{"baseCountry":"US","baseCurrency":"USD","rates":[{"id":432,"name":"Nigeria","name_zh":"尼日利亚","code":"NG","currency_name":"Naira","currency_name_zh":"尼日利亚奈拉","currency_code":"NGN","rate":390,"hits":78000,"selected":0,"top":0,"lat":10,"lng":8,"code3":"NGA","code_num":"566"},{"id":449,"name":"Singapore","name_zh":"新加坡","code":"SG","currency_name":"Dollar","currency_name_zh":"新币","currency_code":"SGD","rate":1.4098,"hits":1507750,"selected":0,"top":0,"lat":1.3667,"lng":103.8,"code3":"SGP","code_num":"702"},{"id":356,"name":"China","name_zh":"中国","code":"CN","currency_name":"Yuan Renminbi","currency_name_zh":"人民币","currency_code":"CNY","rate":7.0623,"hits":344987,"selected":1,"top":5,"lat":35,"lng":105,"code3":"CHN","code_num":"156"},{"id":253,"name":"Australian","name_zh":"澳洲","code":"AU","currency_name":"Australian Dollars","currency_name_zh":"澳币","currency_code":"AUD","rate":1.53284,"hits":123805,"selected":1,"top":4,"lat":-27,"lng":133,"code3":"AUS","code_num":"36"},{"id":417,"name":"Malaysia","name_zh":"马来西亚","code":"MY","currency_name":"Ringgit","currency_name_zh":"马币","currency_code":"MYR","rate":4.298,"hits":159692,"selected":0,"top":0,"lat":2.5,"lng":112.5,"code3":"MYS","code_num":"458"},{"id":302,"name":"Canada","name_zh":"加拿大","code":"CA","currency_name":"Canadian Dollar","currency_name_zh":"加币","currency_code":"CAD","rate":1.39286,"hits":118772,"selected":1,"top":6,"lat":60,"lng":-95,"code3":"CAN","code_num":"124"},{"id":287,"name":"United Kingdom","name_zh":"英国","code":"GB","currency_name":"Sterling","currency_name_zh":"英镑","currency_code":"GBP","rate":0.794836,"hits":103273,"selected":1,"top":7,"lat":54,"lng":-2,"code3":"GBR","code_num":"826"},{"id":297,"name":"United States","name_zh":"美国","code":"US","currency_name":"USD","currency_name_zh":"美元","currency_code":"USD","rate":1,"hits":3389175,"selected":1,"top":10,"lat":38,"lng":-97,"code3":"USA","code_num":"840"},{"id":495,"name":"Europe Union","name_zh":"欧盟","code":"EU","currency_name":"Euro","currency_name_zh":"欧元","currency_code":"EUR","rate":0.914307,"hits":123933,"selected":1,"top":9,"lat":0,"lng":0,"code3":"","code_num":""},{"id":303,"name":"Japan","name_zh":"日本","code":"JP","currency_name":"Japanese Yen","currency_name_zh":"日元","currency_code":"JPY","rate":106.93,"hits":91589,"selected":1,"top":8,"lat":36,"lng":138,"code3":"JPN","code_num":"392"},{"id":411,"name":"Switzerland","name_zh":"瑞士","code":"CH","currency_name":"Swiss Franc","currency_name_zh":"瑞士法郎","currency_code":"CHF","rate":0.966375,"hits":74995,"selected":1,"top":6,"lat":47,"lng":8,"code3":"CHE","code_num":"756"},{"id":453,"name":"South Africa","name_zh":"南非","code":"ZA","currency_name":"Rand","currency_name_zh":"南非兰特","currency_code":"ZAR","rate":18.4696,"hits":76340,"selected":0,"top":2,"lat":-29,"lng":24,"code3":"ZAF","code_num":"710"},{"id":304,"name":"Afghanistan","name_zh":"﻿阿富汗","code":"AF","currency_name":"Afghani","currency_name_zh":"阿富汗尼","currency_code":"AFN","rate":76.4,"hits":84253,"selected":0,"top":0,"lat":33,"lng":65,"code3":"AFG","code_num":"4"},{"id":305,"name":"Albania","name_zh":"阿尔巴尼亚","code":"AL","currency_name":"Lek","currency_name_zh":"欧元","currency_code":"ALL","rate":113.315,"hits":82191,"selected":0,"top":0,"lat":41,"lng":20,"code3":"ALB","code_num":"8"},{"id":306,"name":"Algeria","name_zh":"阿尔及利亚","code":"DZ","currency_name":"Algerian Dinar","currency_name_zh":"阿尔及利亚第纳尔","currency_code":"DZD","rate":127.953,"hits":70283,"selected":0,"top":0,"lat":28,"lng":3,"code3":"DZA","code_num":"12"},{"id":481,"name":"Angola","name_zh":"安哥拉","code":"AO","currency_name":"Angolan kwanza","currency_name_zh":"安哥拉宽扎","currency_code":"AOA","rate":557.3,"hits":80489,"selected":0,"top":0,"lat":-12.5,"lng":18.5,"code3":"AGO","code_num":"24"},{"id":307,"name":"Anguilla","name_zh":"安圭拉","code":"AI","currency_name":"East Caribbean Dollar","currency_name_zh":"东加勒比元","currency_code":"XCD","rate":2.70255,"hits":27908,"selected":1,"top":0,"lat":18.25,"lng":-63.1667,"code3":"AIA","code_num":"660"},{"id":315,"name":"Argentina","name_zh":"阿根廷","code":"AR","currency_name":"Peso","currency_name_zh":"阿根廷比索","currency_code":"ARS","rate":66.8377,"hits":97470,"selected":0,"top":0,"lat":-34,"lng":-64,"code3":"ARG","code_num":"32"},{"id":316,"name":"Armenia","name_zh":"亚美尼亚","code":"AM","currency_name":"Dram","currency_name_zh":"亚美尼亚德拉姆","currency_code":"AMD","rate":479.542,"hits":81816,"selected":0,"top":0,"lat":40,"lng":45,"code3":"ARM","code_num":"51"},{"id":317,"name":"Aruba","name_zh":"阿卢巴岛","code":"AW","currency_name":"Netherlands Antilles Guilder","currency_name_zh":"阿鲁巴盾／弗罗林","currency_code":"ANG","rate":1.79511,"hits":81284,"selected":0,"top":0,"lat":12.5,"lng":-69.9667,"code3":"ABW","code_num":"533"},{"id":319,"name":"Azerbaijan","name_zh":"阿塞拜疆","code":"AZ","currency_name":"Manat","currency_name_zh":"阿塞拜疆马纳特","currency_code":"AZN","rate":1.7025,"hits":72875,"selected":0,"top":0,"lat":40.5,"lng":47.5,"code3":"AZE","code_num":"31"},{"id":320,"name":"Bahamas","name_zh":"巴哈马","code":"BS","currency_name":"Bahamian Dollar","currency_name_zh":"巴哈马元","currency_code":"BSD","rate":1,"hits":96988,"selected":0,"top":0,"lat":24.25,"lng":-76,"code3":"BHS","code_num":"44"},{"id":321,"name":"Bahrain","name_zh":"巴林","code":"BH","currency_name":"Bahraini Dinar","currency_name_zh":"巴林第纳尔","currency_code":"BHD","rate":0.378034,"hits":80630,"selected":0,"top":0,"lat":26,"lng":50.55,"code3":"BHR","code_num":"48"},{"id":322,"name":"Bangladesh","name_zh":"孟加拉","code":"BD","currency_name":"Taka","currency_name_zh":"孟加拉塔卡","currency_code":"BDT","rate":84.9513,"hits":76795,"selected":0,"top":0,"lat":24,"lng":90,"code3":"BGD","code_num":"50"},{"id":323,"name":"Barbados","name_zh":"巴巴多斯","code":"BB","currency_name":"Barbadian Dollar","currency_name_zh":"巴巴多斯元","currency_code":"BBD","rate":2,"hits":99497,"selected":0,"top":0,"lat":13.1667,"lng":-59.5333,"code3":"BRB","code_num":"52"},{"id":324,"name":"Belarus","name_zh":"白俄罗斯","code":"BY","currency_name":"Belarus Ruble","currency_name_zh":"白俄罗斯卢布","currency_code":"BYR","rate":19600,"hits":78407,"selected":0,"top":0,"lat":53,"lng":28,"code3":"BLR","code_num":"112"},{"id":325,"name":"Belize","name_zh":"伯利兹","code":"BZ","currency_name":"Belizean Dollar","currency_name_zh":"伯利兹元","currency_code":"BZD","rate":2.01581,"hits":71489,"selected":0,"top":0,"lat":17.25,"lng":-88.75,"code3":"BLZ","code_num":"84"},{"id":326,"name":"Benin","name_zh":"贝南","code":"BJ","currency_name":"CFA Franc BCEAO","currency_name_zh":"西非国家中央银行非洲法郎","currency_code":"XOF","rate":599.746,"hits":37824,"selected":1,"top":0,"lat":9.5,"lng":2.25,"code3":"BEN","code_num":"204"},{"id":334,"name":"Bermuda","name_zh":"百慕大群岛","code":"BM","currency_name":"Bermudian Dollar","currency_name_zh":"百慕大元","currency_code":"BMD","rate":1,"hits":69837,"selected":0,"top":0,"lat":32.3333,"lng":-64.75,"code3":"BMU","code_num":"60"},{"id":337,"name":"Bolivia","name_zh":"玻利维亚","code":"BO","currency_name":"Boliviano","currency_name_zh":"玻利维亚比索","currency_code":"BOB","rate":6.89549,"hits":89718,"selected":0,"top":0,"lat":-17,"lng":-65,"code3":"BOL","code_num":"68"},{"id":483,"name":"Bosnia and Herzegovina","name_zh":"波斯尼亚","code":"BA","currency_name":"Bosnia and Herzegovina convertible mark","currency_name_zh":"波斯尼亚马克","currency_code":"BAM","rate":1.79854,"hits":76376,"selected":0,"top":0,"lat":44,"lng":18,"code3":"BIH","code_num":"70"},{"id":338,"name":"Botswana","name_zh":"博茨瓦纳","code":"BW","currency_name":"Pula","currency_name_zh":"博茨瓦纳普拉","currency_code":"BWP","rate":12.1561,"hits":69646,"selected":0,"top":0,"lat":-22,"lng":24,"code3":"BWA","code_num":"72"},{"id":342,"name":"Brazil","name_zh":"巴西","code":"BR","currency_name":"Brazil","currency_name_zh":"巴西雷亚尔","currency_code":"BRL","rate":5.4499,"hits":107119,"selected":0,"top":0,"lat":-10,"lng":-55,"code3":"BRA","code_num":"76"},{"id":343,"name":"Brunei Darussalam","name_zh":"文莱","code":"BN","currency_name":"Bruneian Dollar","currency_name_zh":"文莱元","currency_code":"BND","rate":1.41348,"hits":80766,"selected":0,"top":0,"lat":4.5,"lng":114.667,"code3":"BRN","code_num":"96"},{"id":344,"name":"Bulgaria","name_zh":"保加利亚","code":"BG","currency_name":"Lev","currency_name_zh":"欧元","currency_code":"BGN","rate":1.79828,"hits":81594,"selected":0,"top":0,"lat":43,"lng":25,"code3":"BGR","code_num":"100"},{"id":345,"name":"Burundi","name_zh":"布隆迪","code":"BI","currency_name":"Burundi Franc","currency_name_zh":"布隆迪法郎","currency_code":"BIF","rate":1904,"hits":72128,"selected":0,"top":0,"lat":-3.5,"lng":30,"code3":"BDI","code_num":"108"},{"id":346,"name":"Cambodia","name_zh":"柬埔寨","code":"KH","currency_name":"Riel","currency_name_zh":"柬埔寨瑞尔","currency_code":"KHR","rate":4110,"hits":81088,"selected":0,"top":0,"lat":13,"lng":105,"code3":"KHM","code_num":"116"},{"id":347,"name":"Cameroon","name_zh":"喀麦隆","code":"CM","currency_name":"CFA Franc BEAC","currency_name_zh":"中非共同体法郎","currency_code":"XAF","rate":599.746,"hits":38161,"selected":1,"top":0,"lat":6,"lng":12,"code3":"CMR","code_num":"120"},{"id":353,"name":"Cape Verde","name_zh":"佛得角群岛","code":"CV","currency_name":"Escudo","currency_name_zh":"佛得角群岛埃斯库多","currency_code":"CVE","rate":101.65,"hits":80300,"selected":0,"top":0,"lat":16,"lng":-24,"code3":"CPV","code_num":"132"},{"id":354,"name":"Cayman Islands","name_zh":"开曼群岛","code":"KY","currency_name":"Caymanian Dollar","currency_name_zh":"开曼元","currency_code":"KYD","rate":0.833406,"hits":76769,"selected":0,"top":0,"lat":19.5,"lng":-80.5,"code3":"CYM","code_num":"136"},{"id":355,"name":"Chile","name_zh":"智利","code":"CL","currency_name":"Chilean Peso","currency_name_zh":"智利比索","currency_code":"CLP","rate":836.945,"hits":96701,"selected":0,"top":0,"lat":-30,"lng":-71,"code3":"CHL","code_num":"152"},{"id":357,"name":"Colombia","name_zh":"哥伦比亚","code":"CO","currency_name":"Peso","currency_name_zh":"哥伦比亚比索","currency_code":"COP","rate":3931.22,"hits":92839,"selected":0,"top":0,"lat":4,"lng":-72,"code3":"COL","code_num":"170"},{"id":358,"name":"Comoros","name_zh":"科摩罗","code":"KM","currency_name":"Comoran Franc","currency_name_zh":"科摩罗法郎","currency_code":"KMF","rate":451.875,"hits":74842,"selected":0,"top":0,"lat":-12.1667,"lng":44.25,"code3":"COM","code_num":"174"},{"id":359,"name":"Congo (Kinshasa)","name_zh":"刚果民主共和国","code":"CD","currency_name":"Congolese Frank","currency_name_zh":"刚果法郎","currency_code":"CDF","rate":1725,"hits":78406,"selected":0,"top":0,"lat":0,"lng":25,"code3":"COD","code_num":"180"},{"id":360,"name":"Costa Rica","name_zh":"哥斯达黎加","code":"CR","currency_name":"Costa Rican Colon","currency_name_zh":"哥斯达黎加科朗","currency_code":"CRC","rate":567.972,"hits":90042,"selected":0,"top":0,"lat":10,"lng":-84,"code3":"CRI","code_num":"188"},{"id":361,"name":"Croatia (Hrvatska)","name_zh":"克罗地亚","code":"HR","currency_name":"Croatian Dinar","currency_name_zh":"欧元","currency_code":"HRK","rate":6.9289,"hits":77665,"selected":0,"top":0,"lat":45.1667,"lng":15.5,"code3":"HRV","code_num":"191"},{"id":362,"name":"Cuba","name_zh":"古巴","code":"CU","currency_name":"Cuban Peso","currency_name_zh":"古巴披索","currency_code":"CUP","rate":25.75,"hits":136907,"selected":0,"top":0,"lat":21.5,"lng":-80,"code3":"CUB","code_num":"192"},{"id":364,"name":"Czech Republic","name_zh":"捷克共和国","code":"CZ","currency_name":"Koruna","currency_name_zh":"捷克克朗","currency_code":"CZK","rate":24.7817,"hits":76106,"selected":0,"top":0,"lat":49.75,"lng":15.5,"code3":"CZE","code_num":"203"},{"id":365,"name":"Denmark","name_zh":"丹麦","code":"DK","currency_name":"Danish Krone","currency_name_zh":"丹麦克朗","currency_code":"DKK","rate":6.82178,"hits":73052,"selected":0,"top":0,"lat":56,"lng":10,"code3":"DNK","code_num":"208"},{"id":368,"name":"Djibouti","name_zh":"吉布提","code":"DJ","currency_name":"Djiboutian Franc","currency_name_zh":"吉布提法郎","currency_code":"DJF","rate":178,"hits":72744,"selected":0,"top":0,"lat":11.5,"lng":43,"code3":"DJI","code_num":"262"},{"id":369,"name":"Dominican Republic","name_zh":"多米尼加共和国","code":"DO","currency_name":"Dominican Peso","currency_name_zh":"多米尼加比索","currency_code":"DOP","rate":54.76,"hits":91291,"selected":0,"top":0,"lat":19,"lng":-70.6667,"code3":"DOM","code_num":"214"},{"id":370,"name":"East Timor","name_zh":null,"code":"TP","currency_name":"Indonesian Rupiah","currency_name_zh":null,"currency_code":"IDR","rate":15065.3,"hits":37362,"selected":0,"top":0,"lat":0,"lng":0,"code3":"","code_num":""},{"id":373,"name":"Egypt","name_zh":"埃及","code":"EG","currency_name":"Egyptian Pound","currency_name_zh":"埃及镑","currency_code":"EGP","rate":15.746,"hits":71540,"selected":0,"top":0,"lat":27,"lng":30,"code3":"EGY","code_num":"818"},{"id":374,"name":"El Salvador","name_zh":"萨尔瓦多","code":"SV","currency_name":"Salvadoran Colon","currency_name_zh":"美元","currency_code":"SVC","rate":8.75071,"hits":44497,"selected":0,"top":0,"lat":13.8333,"lng":-88.9167,"code3":"SLV","code_num":"222"},{"id":375,"name":"Eritrea","name_zh":"厄立特里亚","code":"ER","currency_name":"Ethiopian Birr","currency_name_zh":"厄立特里亚纳克法","currency_code":"ETB","rate":33.53,"hits":78738,"selected":0,"top":0,"lat":15,"lng":39,"code3":"ERI","code_num":"232"},{"id":377,"name":"Estonia","name_zh":"爱沙尼亚","code":"EE","currency_name":"Estonian Kroon","currency_name_zh":"欧元","currency_code":"EEK","rate":13.947,"hits":34269,"selected":0,"top":0,"lat":59,"lng":26,"code3":"EST","code_num":"233"},{"id":376,"name":"Ethiopia","name_zh":"埃塞俄比亚","code":"ET","currency_name":"Ethiopian Birr","currency_name_zh":"埃塞俄比亚比尔","currency_code":"ETB","rate":33.53,"hits":78715,"selected":0,"top":0,"lat":8,"lng":38,"code3":"ETH","code_num":"231"},{"id":378,"name":"Falkland Islands (Malvinas)","name_zh":null,"code":"FK","currency_name":"Falkland Pound","currency_name_zh":null,"currency_code":"FKP","rate":0.794836,"hits":68379,"selected":0,"top":0,"lat":-51.75,"lng":-59,"code3":"FLK","code_num":"238"},{"id":366,"name":"Faroe Islands","name_zh":"法罗群岛","code":"FO","currency_name":"Danish Krone","currency_name_zh":"丹麦克朗","currency_code":"DKK","rate":6.82178,"hits":36102,"selected":0,"top":0,"lat":62,"lng":-7,"code3":"FRO","code_num":"234"},{"id":379,"name":"Fiji","name_zh":"斐济","code":"FJ","currency_name":"Fijian Dollar","currency_name_zh":"斐济元","currency_code":"FJD","rate":2.236,"hits":77947,"selected":0,"top":0,"lat":-18,"lng":175,"code3":"FJI","code_num":"242"},{"id":380,"name":"French Polynesia","name_zh":"塔希提岛","code":"PF","currency_name":"CFP Franc","currency_name_zh":"太平洋法郎","currency_code":"XPF","rate":109.106,"hits":27303,"selected":0,"top":0,"lat":-15,"lng":-140,"code3":"PYF","code_num":"258"},{"id":383,"name":"Gambia","name_zh":"冈比亚","code":"GM","currency_name":"Dalasi","currency_name_zh":"冈比亚达拉西","currency_code":"GMD","rate":51.08,"hits":78013,"selected":0,"top":0,"lat":13.4667,"lng":-16.5667,"code3":"GMB","code_num":"270"},{"id":384,"name":"Georgia","name_zh":"格鲁吉亚","code":"GE","currency_name":"Lari","currency_name_zh":"格鲁吉亚拉里","currency_code":"GEL","rate":3.215,"hits":81199,"selected":0,"top":0,"lat":42,"lng":43.5,"code3":"GEO","code_num":"268"},{"id":484,"name":"Ghana","name_zh":"加纳","code":"GH","currency_name":"Ghana cedi","currency_name_zh":"加纳塞地","currency_code":"GHS","rate":5.8,"hits":69887,"selected":0,"top":0,"lat":8,"lng":-2,"code3":"GHA","code_num":"288"},{"id":385,"name":"Gibraltar","name_zh":"直布罗陀","code":"GI","currency_name":"Gibraltar Pound","currency_name_zh":"直布罗陀镑","currency_code":"GIP","rate":0.794836,"hits":80289,"selected":0,"top":0,"lat":36.1833,"lng":-5.3667,"code3":"GIB","code_num":"292"},{"id":367,"name":"Greenland","name_zh":"格陵兰","code":"GL","currency_name":"Danish Krone","currency_name_zh":"丹麦克朗","currency_code":"DKK","rate":6.82178,"hits":27175,"selected":0,"top":0,"lat":72,"lng":-40,"code3":"GRL","code_num":"304"},{"id":386,"name":"Guatemala","name_zh":"危地马拉","code":"GT","currency_name":"Quetzal","currency_name_zh":"危地马拉格查尔","currency_code":"GTQ","rate":7.71804,"hits":96798,"selected":0,"top":0,"lat":15.5,"lng":-90.25,"code3":"GTM","code_num":"320"},{"id":485,"name":"Guernsey","name_zh":"根西岛","code":"GG","currency_name":"Guernsey pound","currency_name_zh":"英镑","currency_code":"GGP","rate":0.794836,"hits":77906,"selected":0,"top":0,"lat":49.5,"lng":-2.56,"code3":"GGY","code_num":"831"},{"id":387,"name":"Guinea","name_zh":"几内亚","code":"GN","currency_name":"Guinean Franc","currency_name_zh":"几内亚法郎","currency_code":"GNF","rate":9455,"hits":76312,"selected":0,"top":0,"lat":11,"lng":-10,"code3":"GIN","code_num":"324"},{"id":388,"name":"Guyana","name_zh":"圭亚那","code":"GY","currency_name":"Guyanaese Dollar","currency_name_zh":"圭亚那元","currency_code":"GYD","rate":209.175,"hits":91186,"selected":0,"top":0,"lat":5,"lng":-59,"code3":"GUY","code_num":"328"},{"id":389,"name":"Haiti","name_zh":"海地","code":"HT","currency_name":"Gourde","currency_name_zh":"海地古德","currency_code":"HTG","rate":97.7263,"hits":95858,"selected":0,"top":0,"lat":19,"lng":-72.4167,"code3":"HTI","code_num":"332"},{"id":390,"name":"Honduras","name_zh":"洪都拉斯","code":"HN","currency_name":"Lempira","currency_name_zh":"洪都拉斯伦皮拉","currency_code":"HNL","rate":24.96,"hits":86059,"selected":0,"top":0,"lat":15,"lng":-86.5,"code3":"HND","code_num":"340"},{"id":301,"name":"Hong Kong","name_zh":"香港","code":"HK","currency_name":"HKD","currency_name_zh":"港币","currency_code":"HKD","rate":7.75165,"hits":87549,"selected":0,"top":0,"lat":22.25,"lng":114.167,"code3":"HKG","code_num":"344"},{"id":391,"name":"Hungary","name_zh":"匈牙利","code":"HU","currency_name":"Forint","currency_name_zh":"匈牙利福林","currency_code":"HUF","rate":323.008,"hits":81857,"selected":0,"top":0,"lat":47,"lng":20,"code3":"HUN","code_num":"348"},{"id":392,"name":"Iceland","name_zh":"冰岛","code":"IS","currency_name":"Icelandic Krona","currency_name_zh":"冰岛克朗","currency_code":"ISK","rate":145.64,"hits":78421,"selected":0,"top":0,"lat":65,"lng":-18,"code3":"ISL","code_num":"352"},{"id":336,"name":"India","name_zh":"印度","code":"IN","currency_name":"Indian Rupee","currency_name_zh":"印度卢比","currency_code":"INR","rate":75.22,"hits":84590,"selected":1,"top":0,"lat":20,"lng":77,"code3":"IND","code_num":"356"},{"id":371,"name":"Indonesia","name_zh":"印尼","code":"ID","currency_name":"Indonesian Rupiah","currency_name_zh":"印尼盾","currency_code":"IDR","rate":15065.3,"hits":86201,"selected":0,"top":0,"lat":-5,"lng":120,"code3":"IDN","code_num":"360"},{"id":393,"name":"Iran (Islamic Republic of)","name_zh":"伊朗","code":"IR","currency_name":"Iranian Rial","currency_name_zh":null,"currency_code":"IRR","rate":42105,"hits":118859,"selected":0,"top":0,"lat":32,"lng":53,"code3":"IRN","code_num":"364"},{"id":394,"name":"Iraq","name_zh":"伊拉克","code":"IQ","currency_name":"Iraqi Dinar","currency_name_zh":"伊拉克第纳尔","currency_code":"IQD","rate":1190.5,"hits":72953,"selected":0,"top":0,"lat":33,"lng":44,"code3":"IRQ","code_num":"368"},{"id":395,"name":"Israel","name_zh":"以色列","code":"IL","currency_name":"Shekel","currency_name_zh":"以色列谢克尔","currency_code":"ILS","rate":3.47982,"hits":86834,"selected":0,"top":0,"lat":31.5,"lng":34.75,"code3":"ISR","code_num":"376"},{"id":396,"name":"Jamaica","name_zh":"牙买加","code":"JM","currency_name":"Jamaican Dollar","currency_name_zh":"牙买加元","currency_code":"JMD","rate":141.609,"hits":84805,"selected":0,"top":0,"lat":18.25,"lng":-77.5,"code3":"JAM","code_num":"388"},{"id":397,"name":"Jordan","name_zh":"约旦","code":"JO","currency_name":"Jordanian Dinar","currency_name_zh":"约旦第纳尔","currency_code":"JOD","rate":0.709,"hits":74473,"selected":0,"top":0,"lat":31,"lng":36,"code3":"JOR","code_num":"400"},{"id":398,"name":"Kazakhstan","name_zh":"哈萨克斯坦共和国","code":"KZ","currency_name":"Tenge","currency_name_zh":"哈萨克斯坦坚戈","currency_code":"KZT","rate":429.185,"hits":69606,"selected":0,"top":0,"lat":48,"lng":68,"code3":"KAZ","code_num":"398"},{"id":399,"name":"Kenya","name_zh":"肯尼亚","code":"KE","currency_name":"Kenyan Shilling","currency_name_zh":"肯尼亚先令","currency_code":"KES","rate":107.26,"hits":71637,"selected":0,"top":0,"lat":1,"lng":38,"code3":"KEN","code_num":"404"},{"id":400,"name":"Korea North","name_zh":null,"code":"KP","currency_name":"Won","currency_name_zh":null,"currency_code":"KPW","rate":900,"hits":76566,"selected":0,"top":0,"lat":40,"lng":127,"code3":"PRK","code_num":"408"},{"id":401,"name":"Korea South","name_zh":"韩国","code":"KR","currency_name":"Won","currency_name_zh":"韩圆","currency_code":"KRW","rate":1214.64,"hits":85392,"selected":0,"top":0,"lat":37,"lng":127.5,"code3":"KOR","code_num":"410"},{"id":402,"name":"Kuwait","name_zh":"科威特","code":"KW","currency_name":"Kuwaiti Dinar","currency_name_zh":"科威特第纳尔","currency_code":"KWD","rate":0.309305,"hits":76888,"selected":0,"top":0,"lat":29.3375,"lng":47.6581,"code3":"KWT","code_num":"414"},{"id":403,"name":"Kyrgyzstan","name_zh":"吉尔吉斯共和国","code":"KG","currency_name":"Som","currency_name_zh":"吉尔吉斯索姆","currency_code":"KGS","rate":78.9767,"hits":77646,"selected":0,"top":0,"lat":41,"lng":75,"code3":"KGZ","code_num":"417"},{"id":404,"name":"Laos","name_zh":"老挝","code":"LA","currency_name":"Lao kip","currency_name_zh":"老挝基普","currency_code":"LAK","rate":8984,"hits":78130,"selected":0,"top":0,"lat":18,"lng":105,"code3":"LAO","code_num":"418"},{"id":405,"name":"Latvia","name_zh":"拉脱维亚","code":"LV","currency_name":"Lat","currency_name_zh":"拉脱维亚拉特","currency_code":"LVL","rate":0.60489,"hits":30013,"selected":0,"top":0,"lat":57,"lng":25,"code3":"LVA","code_num":"428"},{"id":406,"name":"Lebanon","name_zh":"黎巴嫩","code":"LB","currency_name":"Lebanese Pound","currency_name_zh":"黎巴嫩镑","currency_code":"LBP","rate":1514,"hits":71987,"selected":0,"top":0,"lat":33.8333,"lng":35.8333,"code3":"LBN","code_num":"422"},{"id":407,"name":"Lesotho","name_zh":"莱索托","code":"LS","currency_name":"Loti","currency_name_zh":"莱索托洛蒂","currency_code":"LSL","rate":18.54,"hits":75375,"selected":0,"top":0,"lat":-29.5,"lng":28.5,"code3":"LSO","code_num":"426"},{"id":408,"name":"Liberia","name_zh":"利比里亚","code":"LR","currency_name":"Liberian Dollar","currency_name_zh":"利比里亚元","currency_code":"LRD","rate":198,"hits":69877,"selected":0,"top":0,"lat":6.5,"lng":-9.5,"code3":"LBR","code_num":"430"},{"id":409,"name":"Libyan Arab Jamahiriya","name_zh":"利比亚","code":"LY","currency_name":"Libyan Dinar","currency_name_zh":"利比亚第纳尔","currency_code":"LYD","rate":1.41,"hits":74606,"selected":0,"top":0,"lat":25,"lng":17,"code3":"LBY","code_num":"434"},{"id":412,"name":"Lithuania","name_zh":"立陶宛","code":"LT","currency_name":"Lita","currency_name_zh":"欧元","currency_code":"LTL","rate":2.95274,"hits":36659,"selected":0,"top":0,"lat":56,"lng":24,"code3":"LTU","code_num":"440"},{"id":413,"name":"Macao S.A.R.","name_zh":"澳门","code":"MO","currency_name":"Macanese pataca","currency_name_zh":"澳门元","currency_code":"MOP","rate":7.98405,"hits":80658,"selected":0,"top":0,"lat":22.1667,"lng":113.55,"code3":"MAC","code_num":"446"},{"id":414,"name":"Macedonia","name_zh":"马其顿（前南斯拉夫马其顿共和国）","code":"MK","currency_name":"Denar","currency_name_zh":"欧元","currency_code":"MKD","rate":56.7331,"hits":73245,"selected":0,"top":0,"lat":41.8333,"lng":22,"code3":"MKD","code_num":"807"},{"id":415,"name":"Madagascar","name_zh":"马达加斯加","code":"MG","currency_name":"Malagasy Franc","currency_name_zh":"马达加斯加阿里亚里","currency_code":"MGA","rate":3798,"hits":71997,"selected":0,"top":0,"lat":-20,"lng":47,"code3":"MDG","code_num":"450"},{"id":416,"name":"Malawi","name_zh":"马拉维","code":"MW","currency_name":"Malawian Kwacha","currency_name_zh":"马拉维克瓦查","currency_code":"MWK","rate":737.5,"hits":75471,"selected":0,"top":0,"lat":-13.5,"lng":34,"code3":"MWI","code_num":"454"},{"id":418,"name":"Maldives","name_zh":"马尔代夫","code":"MV","currency_name":"Rufiyaa","currency_name_zh":"马尔代夫卢比","currency_code":"MVR","rate":15.45,"hits":83355,"selected":0,"top":0,"lat":3.25,"lng":73,"code3":"MDV","code_num":"462"},{"id":420,"name":"Mauritania","name_zh":"毛里塔尼亚","code":"MR","currency_name":"Ouguiya","currency_name_zh":"毛里塔尼亚乌吉亚","currency_code":"MRO","rate":357,"hits":74760,"selected":0,"top":0,"lat":20,"lng":-12,"code3":"MRT","code_num":"478"},{"id":421,"name":"Mauritius","name_zh":"毛里求斯","code":"MU","currency_name":"Mauritian Rupee","currency_name_zh":"毛里求斯卢比","currency_code":"MUR","rate":39.8541,"hits":77052,"selected":0,"top":0,"lat":-20.2833,"lng":57.55,"code3":"MUS","code_num":"480"},{"id":422,"name":"Mexico","name_zh":"墨西哥","code":"MX","currency_name":"Peso","currency_name_zh":"墨西哥比索","currency_code":"MXN","rate":24.0021,"hits":105249,"selected":0,"top":0,"lat":23,"lng":-102,"code3":"MEX","code_num":"484"},{"id":423,"name":"Moldova Republic of","name_zh":"摩尔多瓦","code":"MD","currency_name":"Leu","currency_name_zh":"摩尔多瓦列伊","currency_code":"MDL","rate":18.0474,"hits":68840,"selected":0,"top":0,"lat":47,"lng":29,"code3":"MDA","code_num":"498"},{"id":424,"name":"Mongolia","name_zh":"蒙古","code":"MN","currency_name":"Tugrik","currency_name_zh":"蒙古图格里克","currency_code":"MNT","rate":2788.97,"hits":72634,"selected":0,"top":0,"lat":46,"lng":105,"code3":"MNG","code_num":"496"},{"id":425,"name":"Morocco","name_zh":"摩洛哥","code":"MA","currency_name":"Dirham","currency_name_zh":"摩洛哥迪拉姆","currency_code":"MAD","rate":9.8665,"hits":79111,"selected":0,"top":0,"lat":32,"lng":-5,"code3":"MAR","code_num":"504"},{"id":427,"name":"Mozambique","name_zh":"莫桑比克","code":"MZ","currency_name":"Metical","currency_name_zh":"莫桑比克梅蒂卡尔","currency_code":"MZN","rate":67.8,"hits":76882,"selected":0,"top":0,"lat":-18.25,"lng":35,"code3":"MOZ","code_num":"508"},{"id":428,"name":"Myanmar","name_zh":null,"code":"MM","currency_name":"Kyat","currency_name_zh":null,"currency_code":"MMK","rate":1410.63,"hits":78607,"selected":0,"top":0,"lat":22,"lng":98,"code3":"MMR","code_num":"104"},{"id":429,"name":"Namibia","name_zh":"纳米比亚","code":"NA","currency_name":"Dollar","currency_name_zh":"纳米比亚元","currency_code":"NAD","rate":18.54,"hits":78126,"selected":0,"top":0,"lat":-22,"lng":17,"code3":"NAM","code_num":"516"},{"id":430,"name":"Nepal","name_zh":"尼泊尔","code":"NP","currency_name":"Nepalese Rupee","currency_name_zh":"尼泊尔卢比","currency_code":"NPR","rate":121.084,"hits":73977,"selected":0,"top":0,"lat":28,"lng":84,"code3":"NPL","code_num":"524"},{"id":318,"name":"Netherlands Antilles","name_zh":"","code":"AN","currency_name":"Netherlands Antilles Guilder","currency_name_zh":"","currency_code":"ANG","rate":1.79511,"hits":75092,"selected":0,"top":0,"lat":12.25,"lng":-68.75,"code3":"ANT","code_num":"530"},{"id":381,"name":"New Caledonia","name_zh":"新喀里多尼亚","code":"NC","currency_name":"CFP Franc","currency_name_zh":"太平洋法郎","currency_code":"XPF","rate":109.106,"hits":33960,"selected":0,"top":0,"lat":-21.5,"lng":165.5,"code3":"NCL","code_num":"540"},{"id":248,"name":"New Zealand","name_zh":"新西兰","code":"NZ","currency_name":"New Zealand Dollars","currency_name_zh":"新西兰元","currency_code":"NZD","rate":1.62763,"hits":72398,"selected":1,"top":0,"lat":-41,"lng":174,"code3":"NZL","code_num":"554"},{"id":431,"name":"Nicaragua","name_zh":"尼加拉瓜","code":"NI","currency_name":"Cordoba Oro","currency_name_zh":"尼加拉瓜金科多巴","currency_code":"NIO","rate":34.545,"hits":98957,"selected":0,"top":0,"lat":13,"lng":-85,"code3":"NIC","code_num":"558"},{"id":340,"name":"Norway","name_zh":"挪威","code":"NO","currency_name":"Norwegian Krone","currency_name_zh":"挪威克朗","currency_code":"NOK","rate":10.2701,"hits":81916,"selected":1,"top":0,"lat":62,"lng":10,"code3":"NOR","code_num":"578"},{"id":433,"name":"Oman","name_zh":"阿曼","code":"OM","currency_name":"Sul Rial","currency_name_zh":"阿曼里亚尔","currency_code":"OMR","rate":0.385057,"hits":70470,"selected":0,"top":0,"lat":21,"lng":57,"code3":"OMN","code_num":"512"},{"id":434,"name":"Pakistan","name_zh":"巴基斯坦","code":"PK","currency_name":"Rupee","currency_name_zh":"巴基斯坦卢比","currency_code":"PKR","rate":160.6,"hits":75263,"selected":0,"top":0,"lat":30,"lng":70,"code3":"PAK","code_num":"586"},{"id":488,"name":"Palestinian Territory","name_zh":null,"code":"PS","currency_name":"Jordanian dinar","currency_name_zh":null,"currency_code":"JOD","rate":0.709,"hits":31068,"selected":0,"top":0,"lat":32,"lng":35.25,"code3":"PSE","code_num":"275"},{"id":435,"name":"Panama","name_zh":"巴拿马","code":"PA","currency_name":"Balboa","currency_name_zh":"巴拿马巴波亚","currency_code":"PAB","rate":1,"hits":97865,"selected":0,"top":0,"lat":9,"lng":-80,"code3":"PAN","code_num":"591"},{"id":436,"name":"Papua New Guinea","name_zh":"巴布亚新几内亚","code":"PG","currency_name":"Kina","currency_name_zh":"巴布亚基纳","currency_code":"PGK","rate":3.435,"hits":72142,"selected":0,"top":0,"lat":-6,"lng":147,"code3":"PNG","code_num":"598"},{"id":437,"name":"Paraguay","name_zh":"巴拉圭","code":"PY","currency_name":"Guarani","currency_name_zh":"巴拉圭瓜拉尼","currency_code":"PYG","rate":6529.92,"hits":97005,"selected":0,"top":0,"lat":-23,"lng":-58,"code3":"PRY","code_num":"600"},{"id":438,"name":"Peru","name_zh":"秘鲁","code":"PE","currency_name":"Nuevo Sol","currency_name_zh":"秘鲁新索尔","currency_code":"PEN","rate":3.379,"hits":87661,"selected":0,"top":0,"lat":-10,"lng":-76,"code3":"PER","code_num":"604"},{"id":439,"name":"Philippines","name_zh":"菲律宾","code":"PH","currency_name":"Peso","currency_name_zh":"菲律宾比索","currency_code":"PHP","rate":50.507,"hits":89329,"selected":0,"top":0,"lat":13,"lng":122,"code3":"PHL","code_num":"608"},{"id":440,"name":"Poland","name_zh":"波兰","code":"PL","currency_name":"Zloty","currency_name_zh":"波兰兹罗提","currency_code":"PLN","rate":4.15429,"hits":79775,"selected":0,"top":0,"lat":52,"lng":20,"code3":"POL","code_num":"616"},{"id":441,"name":"Qatar","name_zh":"卡塔尔","code":"QA","currency_name":"Rial","currency_name_zh":"卡塔尔里亚尔","currency_code":"QAR","rate":3.641,"hits":86154,"selected":0,"top":0,"lat":25.5,"lng":51.25,"code3":"QAT","code_num":"634"},{"id":442,"name":"Romania","name_zh":"罗马尼亚","code":"RO","currency_name":"Leu","currency_name_zh":"罗马尼亚列伊","currency_code":"RON","rate":4.4262,"hits":73577,"selected":0,"top":0,"lat":46,"lng":25,"code3":"ROU","code_num":"642"},{"id":443,"name":"Russian Federation","name_zh":"俄罗斯","code":"RU","currency_name":"Ruble","currency_name_zh":"俄罗斯卢布","currency_code":"RUB","rate":74.4829,"hits":83732,"selected":0,"top":0,"lat":60,"lng":100,"code3":"RUS","code_num":"643"},{"id":444,"name":"Rwanda","name_zh":"卢旺达","code":"RW","currency_name":"Rwanda Franc","currency_name_zh":"卢旺达法郎","currency_code":"RWF","rate":935,"hits":76104,"selected":0,"top":0,"lat":-2,"lng":30,"code3":"RWA","code_num":"646"},{"id":491,"name":"Saint Martin (French part)","name_zh":null,"code":"MF","currency_name":"Netherlands Antillean guilder","currency_name_zh":null,"currency_code":"ANG","rate":1.79511,"hits":24912,"selected":0,"top":0,"lat":0,"lng":0,"code3":"","code_num":""},{"id":445,"name":"Sao Tome and Principe","name_zh":"圣多美与普林西比","code":"ST","currency_name":"Dobra","currency_name_zh":"圣多美和普林西比多布拉","currency_code":"STD","rate":22050.7,"hits":77790,"selected":0,"top":0,"lat":1,"lng":7,"code3":"STP","code_num":"678"},{"id":446,"name":"Saudi Arabia","name_zh":"沙特阿拉伯","code":"SA","currency_name":"Riyal","currency_name_zh":"沙特里亚尔","currency_code":"SAR","rate":3.75758,"hits":75360,"selected":0,"top":0,"lat":25,"lng":45,"code3":"SAU","code_num":"682"},{"id":493,"name":"Serbia","name_zh":"塞尔维亚","code":"RS","currency_name":"Serbian dinar","currency_name_zh":"塞尔维亚第纳尔","currency_code":"RSD","rate":107.57,"hits":76633,"selected":0,"top":0,"lat":44,"lng":21,"code3":"SRB","code_num":"688"},{"id":447,"name":"Seychelles","name_zh":"塞舌尔","code":"SC","currency_name":"Rupee","currency_name_zh":"塞舌尔卢比","currency_code":"SCR","rate":15.1337,"hits":77865,"selected":0,"top":0,"lat":-4.5833,"lng":55.6667,"code3":"SYC","code_num":"690"},{"id":448,"name":"Sierra Leone","name_zh":"塞拉利昂","code":"SL","currency_name":"Leone","currency_name_zh":"塞拉利昂 利昂","currency_code":"SLL","rate":9702.5,"hits":64790,"selected":0,"top":0,"lat":8.5,"lng":-11.5,"code3":"SLE","code_num":"694"},{"id":451,"name":"Solomon Islands","name_zh":"所罗门群岛","code":"SB","currency_name":"Solomon Islands Dollar","currency_name_zh":"所罗门群岛元","currency_code":"SBD","rate":8.30104,"hits":83305,"selected":0,"top":0,"lat":-8,"lng":159,"code3":"SLB","code_num":"90"},{"id":452,"name":"Somalia","name_zh":null,"code":"SO","currency_name":"Shilling","currency_name_zh":null,"currency_code":"SOS","rate":583,"hits":70549,"selected":0,"top":0,"lat":10,"lng":49,"code3":"SOM","code_num":"706"},{"id":454,"name":"Sri Lanka","name_zh":"斯里兰卡","code":"LK","currency_name":"Rupee","currency_name_zh":"斯里 兰卡卢比","currency_code":"LKR","rate":191.853,"hits":74250,"selected":0,"top":0,"lat":7,"lng":81,"code3":"LKA","code_num":"144"},{"id":455,"name":"Sudan","name_zh":null,"code":"SD","currency_name":"Dinar","currency_name_zh":null,"currency_code":"SDG","rate":55.3,"hits":67647,"selected":0,"top":0,"lat":15,"lng":30,"code3":"SDN","code_num":"736"},{"id":456,"name":"Suriname","name_zh":"苏里南","code":"SR","currency_name":"Surinamese Guilder","currency_name_zh":"苏里南盾","currency_code":"SRD","rate":7.458,"hits":85653,"selected":0,"top":0,"lat":4,"lng":-56,"code3":"SUR","code_num":"740"},{"id":457,"name":"Swaziland","name_zh":"斯威士兰","code":"SZ","currency_name":"Lilangeni","currency_name_zh":"斯威士兰 里兰吉尼","currency_code":"SZL","rate":18.53,"hits":73627,"selected":0,"top":0,"lat":-26.5,"lng":31.5,"code3":"SWZ","code_num":"748"},{"id":458,"name":"Sweden","name_zh":"瑞典","code":"SE","currency_name":"Krona","currency_name_zh":"瑞典克朗","currency_code":"SEK","rate":9.77419,"hits":79656,"selected":0,"top":0,"lat":62,"lng":15,"code3":"SWE","code_num":"752"},{"id":459,"name":"Syrian Arab Republic","name_zh":null,"code":"SY","currency_name":"Syrian Pound","currency_name_zh":null,"currency_code":"SYP","rate":513.275,"hits":75959,"selected":0,"top":0,"lat":35,"lng":38,"code3":"SYR","code_num":"760"},{"id":460,"name":"Taiwan","name_zh":"台湾","code":"TW","currency_name":"Dollar","currency_name_zh":"新台币","currency_code":"TWD","rate":29.783,"hits":95683,"selected":0,"top":0,"lat":23.5,"lng":121,"code3":"TWN","code_num":"158"},{"id":461,"name":"Tajikistan","name_zh":"塔吉克斯坦共和国","code":"TJ","currency_name":"Tajikistan Ruble","currency_name_zh":"塔吉克斯坦共和国 索莫尼","currency_code":"TJS","rate":10.2482,"hits":76139,"selected":0,"top":0,"lat":39,"lng":71,"code3":"TJK","code_num":"762"},{"id":462,"name":"Tanzania","name_zh":"坦桑尼亚","code":"TZ","currency_name":"Shilling","currency_name_zh":"坦桑尼亚先令","currency_code":"TZS","rate":2314.2,"hits":71716,"selected":0,"top":0,"lat":-6,"lng":35,"code3":"TZA","code_num":"834"},{"id":463,"name":"Thailand","name_zh":"泰国","code":"TH","currency_name":"Baht","currency_name_zh":"泰铢","currency_code":"THB","rate":32.4805,"hits":89791,"selected":0,"top":0,"lat":15,"lng":100,"code3":"THA","code_num":"764"},{"id":464,"name":"Tonga","name_zh":"汤加","code":"TO","currency_name":"PaÕanga","currency_name_zh":"汤加 潘加","currency_code":"TOP","rate":2.31437,"hits":73475,"selected":0,"top":0,"lat":-20,"lng":-175,"code3":"TON","code_num":"776"},{"id":465,"name":"Trinidad and Tobago","name_zh":"特立尼达和多巴哥","code":"TT","currency_name":"Trinidad and Tobago Dollar","currency_name_zh":"特立尼达和多巴哥元","currency_code":"TTD","rate":6.75212,"hits":95720,"selected":0,"top":0,"lat":11,"lng":-61,"code3":"TTO","code_num":"780"},{"id":466,"name":"Tunisia","name_zh":"突尼斯","code":"TN","currency_name":"Tunisian Dinar","currency_name_zh":"突尼斯第纳尔","currency_code":"TND","rate":2.90125,"hits":68769,"selected":0,"top":0,"lat":34,"lng":9,"code3":"TUN","code_num":"788"},{"id":467,"name":"Turkey","name_zh":"土耳其","code":"TR","currency_name":"Lira","currency_name_zh":"土耳其里拉","currency_code":"TRY","rate":6.98959,"hits":80234,"selected":0,"top":0,"lat":39,"lng":35,"code3":"TUR","code_num":"792"},{"id":468,"name":"Turkmenistan","name_zh":"土库曼斯坦共和国","code":"TM","currency_name":"Manat","currency_name_zh":"土库曼斯坦斯坦马纳特","currency_code":"TMT","rate":3.51,"hits":76175,"selected":0,"top":0,"lat":40,"lng":60,"code3":"TKM","code_num":"795"},{"id":469,"name":"Uganda","name_zh":"乌干达","code":"UG","currency_name":"Shilling","currency_name_zh":"乌干达先令","currency_code":"UGX","rate":3800.23,"hits":69230,"selected":0,"top":0,"lat":1,"lng":32,"code3":"UGA","code_num":"800"},{"id":470,"name":"Ukraine","name_zh":"乌克兰","code":"UA","currency_name":"Hryvnia","currency_name_zh":"乌克兰 格里夫纳","currency_code":"UAH","rate":26.9445,"hits":80064,"selected":0,"top":0,"lat":49,"lng":32,"code3":"UKR","code_num":"804"},{"id":471,"name":"United Arab Emirates","name_zh":"阿拉伯联合酋长国","code":"AE","currency_name":"Dirham","currency_name_zh":"阿联酋迪拉姆","currency_code":"AED","rate":3.6731,"hits":74448,"selected":0,"top":0,"lat":24,"lng":54,"code3":"ARE","code_num":"784"},{"id":472,"name":"Uruguay","name_zh":"乌拉圭","code":"UY","currency_name":"Peso","currency_name_zh":"乌拉圭比索","currency_code":"UYU","rate":43.0078,"hits":96904,"selected":0,"top":0,"lat":-33,"lng":-56,"code3":"URY","code_num":"858"},{"id":473,"name":"Uzbekistan","name_zh":"乌兹别克斯坦共和国","code":"UZ","currency_name":"Som","currency_name_zh":"乌兹别克斯坦斯坦索姆","currency_code":"UZS","rate":10125,"hits":67965,"selected":0,"top":0,"lat":41,"lng":64,"code3":"UZB","code_num":"860"},{"id":474,"name":"Vanuatu","name_zh":"瓦努阿图","code":"VU","currency_name":"Vatu","currency_name_zh":"瓦努阿图 瓦图","currency_code":"VUV","rate":121.637,"hits":75501,"selected":0,"top":0,"lat":-16,"lng":167,"code3":"VUT","code_num":"548"},{"id":475,"name":"Venezuela","name_zh":"委内瑞拉","code":"VE","currency_name":"Bolivar","currency_name_zh":"委内瑞拉博利瓦","currency_code":"VEF","rate":248488,"hits":96605,"selected":0,"top":0,"lat":8,"lng":-66,"code3":"VEN","code_num":"862"},{"id":476,"name":"Vietnam","name_zh":"越南","code":"VN","currency_name":"Dong","currency_name_zh":"越南盾","currency_code":"VND","rate":23298.9,"hits":88036,"selected":0,"top":0,"lat":16,"lng":106,"code3":"VNM","code_num":"704"},{"id":382,"name":"Wallis and Futuna Islands","name_zh":"瓦利斯和 富图纳群岛","code":"WF","currency_name":"CFP Franc","currency_name_zh":"太平洋法郎","currency_code":"XPF","rate":109.106,"hits":35198,"selected":0,"top":0,"lat":-13.3,"lng":-176.2,"code3":"WLF","code_num":"876"},{"id":426,"name":"Western Sahara","name_zh":null,"code":"EH","currency_name":"Dirham","currency_name_zh":null,"currency_code":"MAD","rate":9.8665,"hits":25641,"selected":0,"top":0,"lat":24.5,"lng":-13,"code3":"ESH","code_num":"732"},{"id":477,"name":"Yemen","name_zh":"也门","code":"YE","currency_name":"Rial","currency_name_zh":"也门里亚尔","currency_code":"YER","rate":250.325,"hits":73642,"selected":0,"top":0,"lat":15,"lng":48,"code3":"YEM","code_num":"887"},{"id":478,"name":"Zambia","name_zh":"赞比亚","code":"ZM","currency_name":"Kwacha","currency_name_zh":"赞比亚克瓦查","currency_code":"ZMK","rate":9001.2,"hits":71938,"selected":0,"top":0,"lat":-15,"lng":30,"code3":"ZMB","code_num":"894"}]}